{"type": "FeatureCollection", "features": [ {"type": "Feature", "properties": {"norad_id": 35724, "name": "COSMOS 2251 DEB", "group": "cosmos-2251-debris", "lat": 73.92313714381321, "lon": 50.23355016882108, "alt_km": 651.8031902605999, "timestamp": "2025-12-06T22:38:43.125651+00:00", "meta": {"OBJECT_NAME": "COSMOS 2251 DEB", "OBJECT_ID": "1993-036AQV", "EPOCH": "2025-11-30T08:09:18.426240", "MEAN_MOTION": 14.58149733, "ECCENTRICITY": 0.00590888, "INCLINATION": 74.0317, "RA_OF_ASC_NODE": 326.2795, "ARG_OF_PERICENTER": 123.6188, "MEAN_ANOMALY": 237.0635, "EPHEMERIS_TYPE": 0, "CLASSIFICATION_TYPE": "U", "NORAD_CAT_ID": 35724, "ELEMENT_SET_NO": 999, "REV_AT_EPOCH": 87348, "BSTAR": 0.00024156118, "MEAN_MOTION_DOT": 1.11e-05, "MEAN_MOTION_DDOT": 0}, "tle": {"line1": "1 35724U 93036AQV 25334.33979660  .00001110  00000+0  24156-3 0  9995", "line2": "2 35724  74.0317 326.2795 0059088 123.6188 237.0635 14.58149733873489"}}, "geometry": {"type": "Point", "coordinates": [50.23355016882108, 73.92313714381321]}}, {"type": "Feature", "properties": {"norad_id": 35759, "name": "COSMOS 2251 DEB", "group": "cosmos-2251-debris", "lat": 9.453311457941654, "lon": 44.46440971619711, "alt_km": 732.8899597860036, "timestamp": "2025-12-06T22:38:43.125662+00:00", "meta": {"OBJECT_NAME": "COSMOS 2251 DEB", "OBJECT_ID": "1993-036ARD", "EPOCH": "2025-12-02T09:41:30.767712", "MEAN_MOTION": 14.648293, "ECCENTRICITY": 0.00766899, "INCLINATION": 74.0385, "RA_OF_ASC_NODE": 235.9215, "ARG_OF_PERICENTER": 356.5872, "MEAN_ANOMALY": 3.4761, "EPHEMERIS_TYPE": 0, "CLASSIFICATION_TYPE": "U", "NORAD_CAT_ID": 35759, "ELEMENT_SET_NO": 999, "REV_AT_EPOCH": 65984, "BSTAR": 0.00048578617, "MEAN_MOTION_DOT": 2.675e-05, "MEAN_MOTION_DDOT": 0}, "tle": {"line1": "1 35759U 93036ARD 25336.40382833  .00002675  00000+0  48579-3 0  9995", "line2": "2 35759  74.0385 235.9215 0076689 356.5872   3.4761 14.64829300659847"}}, "geometry": {"type": "Point", "coordinates": [44.46440971619711, 9.453311457941654]}}, {"type": "Feature", "properties": {"norad_id": 35771, "name": "COSMOS 2251 DEB", "group": "cosmos-2251-debris", "lat": 5.949624823904853, "lon": 138.8193596855288, "alt_km": 835.8680665052925, "timestamp": "2025-12-06T22:38:43.125673+00:00", "meta": {"OBJECT_NAME": "COSMOS 2251 DEB", "OBJECT_ID": "1993-036ARR", "EPOCH": "2025-12-01T22:51:30.244896", "MEAN_MOTION": 14.12926683, "ECCENTRICITY": 0.02319351, "INCLINATION": 74.1552, "RA_OF_ASC_NODE": 329.2812, "ARG_OF_PERICENTER": 270.0606, "MEAN_ANOMALY": 87.396, "EPHEMERIS_TYPE": 0, "CLASSIFICATION_TYPE": "U", "NORAD_CAT_ID": 35771, "ELEMENT_SET_NO": 999, "REV_AT_EPOCH": 82708, "BSTAR": 0.0067662276, "MEAN_MOTION_DOT": 0.00016281, "MEAN_MOTION_DDOT": 0}, "tle": {"line1": "1 35771U 93036ARR 25335.95243339  .00016281  00000+0  67662-2 0  9996", "line2": "2 35771  74.1552 329.2812 0231935 270.0606  87.3960 14.12926683827080"}}, "geometry": {"type": "Point", "coordinates": [138.8193596855288, 5.949624823904853]}}, {"type": "Feature", "properties": {"norad_id": 35773, "name": "COSMOS 2251 DEB", "group": "cosmos-2251-debris", "lat": 62.13793715101919, "lon": 139.08169089864333, "alt_km": 655.5730600067527, "timestamp": "2025-12-06T22:38:43.125683+00:00", "meta": {"OBJECT_NAME": "COSMOS 2251 DEB", "OBJECT_ID": "1993-036ART", "EPOCH": "2025-12-06T10:38:01.749120", "MEAN_MOTION": 14.62016712, "ECCENTRICITY": 0.00458657, "INCLINATION": 74.0075, "RA_OF_ASC_NODE": 352.8969, "ARG_OF_PERICENTER": 154.7377, "MEAN_ANOMALY": 205.6047, "EPHEMERIS_TYPE": 0, "CLASSIFICATION_TYPE": "U", "NORAD_CAT_ID": 35773, "ELEMENT_SET_NO": 999, "REV_AT_EPOCH": 86747, "BSTAR": 0.0010371973, "MEAN_MOTION_DOT": 5.254e-05, "MEAN_MOTION_DDOT": 0}, "tle": {"line1": "1 35773U 93036ART 25340.44307580  .00005254  00000+0  10372-2 0  9991", "line2": "2 35773  74.0075 352.8969 0045865 154.7377 205.6047 14.62016712867470"}}, "geometry": {"type": "Point", "coordinates": [139.08169089864333, 62.13793715101919]}}, {"type": "Feature", "properties": {"norad_id": 35777, "name": "COSMOS 2251 DEB", "group": "cosmos-2251-debris", "lat": -72.27285452544136, "lon": -93.65326418746169, "alt_km": 883.021400917366, "timestamp": "2025-12-06T22:38:43.125693+00:00", "meta": {"OBJECT_NAME": "COSMOS 2251 DEB", "OBJECT_ID": "1993-036ARX", "EPOCH": "2025-12-02T10:40:29.464608", "MEAN_MOTION": 13.41287955, "ECCENTRICITY": 0.04528031, "INCLINATION": 73.7709, "RA_OF_ASC_NODE": 339.1914, "ARG_OF_PERICENTER": 235.501, "MEAN_ANOMALY": 282.7283, "EPHEMERIS_TYPE": 0, "CLASSIFICATION_TYPE": "U", "NORAD_CAT_ID": 35777, "ELEMENT_SET_NO": 999, "REV_AT_EPOCH": 79546, "BSTAR": 0.00081766672, "MEAN_MOTION_DOT": 8.07e-06, "MEAN_MOTION_DDOT": 0}, "tle": {"line1": "1 35777U 93036ARX 25336.44478547  .00000807  00000+0  81767-3 0  9998", "line2": "2 35777  73.7709 339.1914 0452803 235.5010 282.7283 13.41287955795460"}}, "geometry": {"type": "Point", "coordinates": [-93.65326418746169, -72.27285452544136]}}, {"type": "Feature", "properties": {"norad_id": 35784, "name": "COSMOS 2251 DEB", "group": "cosmos-2251-debris", "lat": 19.01961379261114, "lon": 106.25252649852965, "alt_km": 750.5840482900721, "timestamp": "2025-12-06T22:38:43.125703+00:00", "meta": {"OBJECT_NAME": "COSMOS 2251 DEB", "OBJECT_ID": "1993-036ASE", "EPOCH": "2025-12-05T15:05:34.155456", "MEAN_MOTION": 14.50011306, "ECCENTRICITY": 0.00419479, "INCLINATION": 74.0372, "RA_OF_ASC_NODE": 103.0578, "ARG_OF_PERICENTER": 235.0897, "MEAN_ANOMALY": 124.6319, "EPHEMERIS_TYPE": 0, "CLASSIFICATION_TYPE": "U", "NORAD_CAT_ID": 35784, "ELEMENT_SET_NO": 999, "REV_AT_EPOCH": 65603, "BSTAR": 0.00065783499, "MEAN_MOTION_DOT": 2.549e-05, "MEAN_MOTION_DDOT": 0}, "tle": {"line1": "1 35784U 93036ASE 25339.62886754  .00002549  00000+0  65783-3 0  9997", "line2": "2 35784  74.0372 103.0578 0041947 235.0897 124.6319 14.50011306656032"}}, "geometry": {"type": "Point", "coordinates": [106.25252649852965, 19.01961379261114]}}, {"type": "Feature", "properties": {"norad_id": 35786, "name": "COSMOS 2251 DEB", "group": "cosmos-2251-debris", "lat": -36.56479035284859, "lon": 42.67966185949151, "alt_km": 696.8699498392534, "timestamp": "2025-12-06T22:38:43.125714+00:00", "meta": {"OBJECT_NAME": "COSMOS 2251 DEB", "OBJECT_ID": "1993-036ASG", "EPOCH": "2025-12-06T11:21:25.648992", "MEAN_MOTION": 14.66117406, "ECCENTRICITY": 0.00346261, "INCLINATION": 74.0149, "RA_OF_ASC_NODE": 55.8624, "ARG_OF_PERICENTER": 187.1836, "MEAN_ANOMALY": 172.8842, "EPHEMERIS_TYPE": 0, "CLASSIFICATION_TYPE": "U", "NORAD_CAT_ID": 35786, "ELEMENT_SET_NO": 999, "REV_AT_EPOCH": 73316, "BSTAR": 0.0020784465, "MEAN_MOTION_DOT": 0.0001151, "MEAN_MOTION_DDOT": 0}, "tle": {"line1": "1 35786U 93036ASG 25340.47321353  .00011510  00000+0  20784-2 0  9992", "line2": "2 35786  74.0149  55.8624 0034626 187.1836 172.8842 14.66117406733169"}}, "geometry": {"type": "Point", "coordinates": [42.67966185949151, -36.56479035284859]}}, {"type": "Feature", "properties": {"norad_id": 35789, "name": "COSMOS 2251 DEB", "group": "cosmos-2251-debris", "lat": -69.27665209145472, "lon": -114.14243615974114, "alt_km": 791.5895757467551, "timestamp": "2025-12-06T22:38:43.125724+00:00", "meta": {"OBJECT_NAME": "COSMOS 2251 DEB", "OBJECT_ID": "1993-036ASK", "EPOCH": "2025-12-06T14:38:26.509056", "MEAN_MOTION": 14.35977484, "ECCENTRICITY": 0.00472063, "INCLINATION": 74.0392, "RA_OF_ASC_NODE": 295.6215, "ARG_OF_PERICENTER": 36.7286, "MEAN_ANOMALY": 323.7086, "EPHEMERIS_TYPE": 0, "CLASSIFICATION_TYPE": "U", "NORAD_CAT_ID": 35789, "ELEMENT_SET_NO": 999, "REV_AT_EPOCH": 61139, "BSTAR": 0.00024671303, "MEAN_MOTION_DOT": 7e-06, "MEAN_MOTION_DDOT": 0}, "tle": {"line1": "1 35789U 93036ASK 25340.61002904  .00000700  00000+0  24671-3 0  9998", "line2": "2 35789  74.0392 295.6215 0047206  36.7286 323.7086 14.35977484611391"}}, "geometry": {"type": "Point", "coordinates": [-114.14243615974114, -69.27665209145472]}}, {"type": "Feature", "properties": {"norad_id": 35793, "name": "COSMOS 2251 DEB", "group": "cosmos-2251-debris", "lat": 10.579630800629932, "lon": -111.49076314219971, "alt_km": 633.4985028203946, "timestamp": "2025-12-06T22:38:43.125734+00:00", "meta": {"OBJECT_NAME": "COSMOS 2251 DEB", "OBJECT_ID": "1993-036ASP", "EPOCH": "2025-12-06T12:11:23.448192", "MEAN_MOTION": 14.78434964, "ECCENTRICITY": 0.00029593, "INCLINATION": 74.0419, "RA_OF_ASC_NODE": 72.4282, "ARG_OF_PERICENTER": 145.0885, "MEAN_ANOMALY": 226.0688, "EPHEMERIS_TYPE": 0, "CLASSIFICATION_TYPE": "U", "NORAD_CAT_ID": 35793, "ELEMENT_SET_NO": 999, "REV_AT_EPOCH": 65705, "BSTAR": 0.0033773366, "MEAN_MOTION_DOT": 0.00024685, "MEAN_MOTION_DDOT": 0}, "tle": {"line1": "1 35793U 93036ASP 25340.50791028  .00024685  00000+0  33773-2 0  9993", "line2": "2 35793  74.0419  72.4282 0002959 145.0885 226.0688 14.78434964657050"}}, "geometry": {"type": "Point", "coordinates": [-111.49076314219971, 10.579630800629932]}}, {"type": "Feature", "properties": {"norad_id": 35824, "name": "COSMOS 2251 DEB", "group": "cosmos-2251-debris", "lat": -73.81515271601477, "lon": -28.1999870231199, "alt_km": 1042.7249786111015, "timestamp": "2025-12-06T22:38:43.125744+00:00", "meta": {"OBJECT_NAME": "COSMOS 2251 DEB", "OBJECT_ID": "1993-036ASW", "EPOCH": "2025-12-05T22:52:58.587168", "MEAN_MOTION": 13.88379275, "ECCENTRICITY": 0.02497807, "INCLINATION": 73.8463, "RA_OF_ASC_NODE": 60.4551, "ARG_OF_PERICENTER": 147.799, "MEAN_ANOMALY": 213.8673, "EPHEMERIS_TYPE": 0, "CLASSIFICATION_TYPE": "U", "NORAD_CAT_ID": 35824, "ELEMENT_SET_NO": 999, "REV_AT_EPOCH": 84133, "BSTAR": 0.002389201, "MEAN_MOTION_DOT": 3.65e-05, "MEAN_MOTION_DDOT": 0}, "tle": {"line1": "1 35824U 93036ASW 25339.95345587  .00003650  00000+0  23892-2 0  9990", "line2": "2 35824  73.8463  60.4551 0249780 147.7990 213.8673 13.88379275841335"}}, "geometry": {"type": "Point", "coordinates": [-28.1999870231199, -73.81515271601477]}}]}